[{"OBJECT_NAME":"YAOGAN-36 04C","OBJECT_ID":"2022-171E","EPOCH":"2026-03-09T18:55:44.889600","MEAN_MOTION":15.29852307,"ECCENTRICITY":0.00066848,"INCLINATION":34.9797,"RA_OF_ASC_NODE":96.6578,"ARG_OF_PERICENTER":275.3761,"MEAN_ANOMALY":84.6192,"EPHEMERIS_TYPE":0,"CLASSIFICATION_TYPE":"U","NORAD_CAT_ID":54750,"ELEMENT_SET_NO":999,"REV_AT_EPOCH":18024,"BSTAR":0.00054591902,"MEAN_MOTION_DOT":0.00016196,"MEAN_MOTION_DDOT":0},{"OBJECT_NAME":"STARLINK-31716","OBJECT_ID":"2024-062D","EPOCH":"2026-03-09T16:07:16.130208","MEAN_MOTION":15.30192908,"ECCENTRICITY":9.294e-5,"INCLINATION":53.1595,"RA_OF_ASC_NODE":207.098,"ARG_OF_PERICENTER":87.9131,"MEAN_ANOMALY":272.1976,"EPHEMERIS_TYPE":0,"CLASSIFICATION_TYPE":"U","NORAD_CAT_ID":59377,"ELEMENT_SET_NO":999,"REV_AT_EPOCH":11030,"BSTAR":5.134487e-6,"MEAN_MOTION_DOT":-2.07e-6,"MEAN_MOTION_DDOT":0}]
